{"spkid": "54110078", "covariance": {"epoch": "2459137.5", "labels": ["e", "q", "tp", "node", "peri", "i"], "data": [["3.048775316509638E-12", "-3.268176680121102E-12", "-4.155118647947452E-11", "-3.983198453994144E-11", "-2.51574553050484E-10", "1.350648800182716E-10"], ["-3.268176680121102E-12", "3.503758660284205E-12", "4.563211670804585E-11", "4.260266531124289E-11", "2.707282783476636E-10", "-1.449556710461108E-10"], ["-4.155118647947452E-11", "4.563211670804585E-11", "3.836702809047359E-9", "2.97607744887609E-10", "6.537445527500832E-9", "-2.333411738653137E-9"], ["-3.983198453994144E-11", "4.260266531124289E-11", "2.97607744887609E-10", "7.01072354185676E-10", "2.888723512277366E-9", "-1.704712213611709E-9"], ["-2.51574553050484E-10", "2.707282783476636E-10", "6.537445527500832E-9", "2.888723512277366E-9", "2.388580722810477E-8", "-1.163884117620007E-8"], ["1.350648800182716E-10", "-1.449556710461108E-10", "-2.333411738653137E-9", "-1.704712213611709E-9", "-1.163884117620007E-8", "6.129324458961604E-9"]], "elements": [{"label": "e", "sigma": 1.74607425858972e-06, "name": "e", "units": null, "value": ".153001948066631", "title": "eccentricity"}, {"units": "au", "title": "perihelion distance", "value": ".8349356294662786", "sigma": 1.87183296805142e-06, "name": "q", "label": "q"}, {"label": "tp", "units": "TDB", "value": "2459134.258663195891", "title": "time of perihelion passage", "name": "tp", "sigma": 6.19411237309056e-05}, {"units": "deg", "value": "131.2583514633458", "title": "longitude of the ascending node", "sigma": 2.64777709444295e-05, "name": "om", "label": "node"}, {"units": "deg", "title": "argument of perihelion", "value": "235.8021484507132", "sigma": 0.000154550338815885, "name": "w", "label": "peri"}, {"label": "i", "units": "deg", "title": "inclination", "value": "8.826395894587126", "name": "i", "sigma": 7.82900022925125e-05}]}, "elements": [{"sigma": "1.7574E-6", "name": "e", "units": null, "title": "eccentricity", "value": ".1529540340196301", "label": "e"}, {"title": "semi-major axis", "value": ".9850615515880479", "units": "au", "sigma": "1.5766E-7", "name": "a", "label": "a"}, {"value": ".83439241351502", "title": "perihelion distance", "units": "au", "sigma": "1.8633E-6", "name": "q", "label": "q"}, {"label": "i", "sigma": "7.8032E-5", "name": "i", "value": "8.836653130938627", "title": "inclination; angle with respect to x-y ecliptic plane", "units": "deg"}, {"sigma": "2.0684E-5", "name": "om", "units": "deg", "value": "130.9940486315934", "title": "longitude of the ascending node", "label": "node"}, {"units": "deg", "value": "235.5190315659405", "title": "argument of perihelion", "name": "w", "sigma": ".00014169", "label": "peri"}, {"title": "mean anomaly", "value": "282.4984944851544", "units": "deg", "name": "ma", "sigma": ".00054925", "label": "M"}, {"units": "TDB", "title": "time of perihelion passage", "value": "2461277.377830233983", "name": "tp", "sigma": ".00056322", "label": "tp"}, {"title": "sidereal orbital period", "value": "357.102984005033", "units": "d", "sigma": "8.573E-5", "name": "per", "label": "period"}, {"label": "n", "units": "deg/d", "title": "mean motion", "value": "1.008112550509872", "name": "n", "sigma": "2.4202E-7"}, {"label": "Q", "sigma": "1.8177E-7", "name": "ad", "value": "1.135730689661076", "title": "aphelion distance", "units": "au"}], "epoch": "2461200.5"}